{
  "type": "FeatureCollection",
  "crs": {
    "type": "name",
    "properties": {
      "name": "EPSG:4326"
    }
  },
  "features": [
    {
      "type": "Feature",
      "geometry": {
        "type": "Polygon",
        "coordinates": [
          [
            [
              118.64058918496177,
              4.115
            ],
            [
              118.64048179033995,
              4.116086246608422
            ],
            [
              118.64016373358959,
              4.117130749368855
            ],
            [
              118.63964723745325,
              4.118093368625982
            ],
            [
              118.63895215058777,
              4.118937111461594
            ],
            [
              118.6381051847916,
              4.119629553311693
            ],
            [
              118.6371388884853,
              4.120144084024308
            ],
            [
              118.636090395894,
              4.120460930472705
            ],
            [
              118.635,
              4.12056791642556
            ],
            [
              118.63390960410601,
              4.120460930472705
            ],
            [
              118.63286111151471,
              4.120144084024308
            ],
            [
              118.63189481520841,
              4.119629553311693
            ],
            [
              118.63104784941224,
              4.118937111461594
            ],
            [
              118.63035276254676,
              4.118093368625982
            ],
            [
              118.62983626641042,
              4.117130749368855
            ],
            [
              118.62951820966006,
              4.116086246608422
            ],
            [
              118.62941081503824,
              4.115
            ],
            [
              118.62951820966006,
              4.113913753391579
            ],
            [
              118.62983626641042,
              4.112869250631145
            ],
            [
              118.63035276254676,
              4.111906631374018
            ],
            [
              118.63104784941224,
              4.111062888538407
            ],
            [
              118.63189481520841,
              4.110370446688307
            ],
            [
              118.63286111151471,
              4.109855915975692
            ],
            [
              118.63390960410601,
              4.109539069527296
            ],
            [
              118.635,
              4.109432083574441
            ],
            [
              118.636090395894,
              4.109539069527296
            ],
            [
              118.6371388884853,
              4.109855915975692
            ],
            [
              118.6381051847916,
              4.110370446688307
            ],
            [
              118.63895215058777,
              4.111062888538407
            ],
            [
              118.63964723745325,
              4.111906631374018
            ],
            [
              118.64016373358959,
              4.112869250631145
            ],
            [
              118.64048179033995,
              4.113913753391579
            ],
            [
              118.64058918496177,
              4.115
            ]
          ]
        ]
      },
      "properties": {
        "segment_id": "R01",
        "name": "Sipadan Barracuda Point",
        "group": "Sipadan",
        "area_km2": 1.192
      }
    },
    {
      "type": "Feature",
      "geometry": {
        "type": "Polygon",
        "coordinates": [
          [
            [
              118.63310220446938,
              4.11
            ],
            [
              118.63300416704116,
              4.110991602950743
            ],
            [
              118.63271382227994,
              4.111945099156187
            ],
            [
              118.63224232797204,
              4.112823846291882
            ],
            [
              118.6316078033793,
              4.113594074598211
            ],
            [
              118.63083463292597,
              4.114226184633312
            ],
            [
              118.62995252911897,
              4.114695884763026
            ],
            [
              118.62899539071292,
              4.11498512467478
            ],
            [
              118.628,
              4.115082789040971
            ],
            [
              118.62700460928708,
              4.11498512467478
            ],
            [
              118.62604747088103,
              4.114695884763026
            ],
            [
              118.62516536707403,
              4.114226184633312
            ],
            [
              118.6243921966207,
              4.113594074598211
            ],
            [
              118.62375767202796,
              4.112823846291882
            ],
            [
              118.62328617772006,
              4.111945099156187
            ],
            [
              118.62299583295884,
              4.110991602950743
            ],
            [
              118.62289779553062,
              4.11
            ],
            [
              118.62299583295884,
              4.109008397049258
            ],
            [
              118.62328617772006,
              4.108054900843814
            ],
            [
              118.62375767202796,
              4.107176153708119
            ],
            [
              118.6243921966207,
              4.1064059254017895
            ],
            [
              118.62516536707403,
              4.105773815366689
            ],
            [
              118.62604747088103,
              4.105304115236975
            ],
            [
              118.62700460928708,
              4.105014875325221
            ],
            [
              118.628,
              4.104917210959029
            ],
            [
              118.62899539071292,
              4.105014875325221
            ],
            [
              118.62995252911897,
              4.105304115236975
            ],
            [
              118.63083463292597,
              4.105773815366689
            ],
            [
              118.6316078033793,
              4.1064059254017895
            ],
            [
              118.63224232797204,
              4.107176153708119
            ],
            [
              118.63271382227994,
              4.108054900843814
            ],
            [
              118.63300416704116,
              4.109008397049258
            ],
            [
              118.63310220446938,
              4.11
            ]
          ]
        ]
      },
      "properties": {
        "segment_id": "R02",
        "name": "Sipadan Drop Off",
        "group": "Sipadan",
        "area_km2": 0.994
      }
    },
    {
      "type": "Feature",
      "geometry": {
        "type": "Polygon",
        "coordinates": [
          [
            [
              118.63756355041144,
              4.118
            ],
            [
              118.63747586306992,
              4.118886916641821
            ],
            [
              118.63721617082072,
              4.119739749574484
            ],
            [
              118.63679445349133,
              4.120525724906663
            ],
            [
              118.63622691744222,
              4.121214638047123
            ],
            [
              118.63553537276547,
              4.12178001445022
            ],
            [
              118.63474639513522,
              4.1222001270178525
            ],
            [
              118.6338903045193,
              4.122458831059647
            ],
            [
              118.633,
              4.122546184724361
            ],
            [
              118.6321096954807,
              4.122458831059647
            ],
            [
              118.63125360486477,
              4.1222001270178525
            ],
            [
              118.63046462723452,
              4.12178001445022
            ],
            [
              118.62977308255778,
              4.121214638047123
            ],
            [
              118.62920554650866,
              4.120525724906663
            ],
            [
              118.62878382917927,
              4.119739749574484
            ],
            [
              118.62852413693007,
              4.118886916641821
            ],
            [
              118.62843644958855,
              4.118
            ],
            [
              118.62852413693007,
              4.11711308335818
            ],
            [
              118.62878382917927,
              4.116260250425516
            ],
            [
              118.62920554650866,
              4.115474275093337
            ],
            [
              118.62977308255778,
              4.114785361952878
            ],
            [
              118.63046462723452,
              4.114219985549781
            ],
            [
              118.63125360486477,
              4.113799872982148
            ],
            [
              118.6321096954807,
              4.113541168940354
            ],
            [
              118.633,
              4.11345381527564
            ],
            [
              118.6338903045193,
              4.113541168940354
            ],
            [
              118.63474639513522,
              4.113799872982148
            ],
            [
              118.63553537276547,
              4.114219985549781
            ],
            [
              118.63622691744222,
              4.114785361952878
            ],
            [
              118.63679445349133,
              4.115474275093337
            ],
            [
              118.63721617082072,
              4.116260250425516
            ],
            [
              118.63747586306992,
              4.11711308335818
            ],
            [
              118.63756355041144,
              4.118
            ]
          ]
        ]
      },
      "properties": {
        "segment_id": "R03",
        "name": "Sipadan Turtle Cave",
        "group": "Sipadan",
        "area_km2": 0.795
      }
    },
    {
      "type": "Feature",
      "geometry": {
        "type": "Polygon",
        "coordinates": [
          [
            [
              118.62956355041145,
              4.112
            ],
            [
              118.62947586306993,
              4.112886916641821
            ],
            [
              118.62921617082073,
              4.113739749574484
            ],
            [
              118.62879445349134,
              4.114525724906663
            ],
            [
              118.62822691744222,
              4.115214638047123
            ],
            [
              118.62753537276548,
              4.11578001445022
            ],
            [
              118.62674639513523,
              4.116200127017852
            ],
            [
              118.6258903045193,
              4.116458831059647
            ],
            [
              118.625,
              4.116546184724361
            ],
            [
              118.6241096954807,
              4.116458831059647
            ],
            [
              118.62325360486477,
              4.116200127017852
            ],
            [
              118.62246462723452,
              4.11578001445022
            ],
            [
              118.62177308255778,
              4.115214638047123
            ],
            [
              118.62120554650866,
              4.114525724906663
            ],
            [
              118.62078382917927,
              4.113739749574484
            ],
            [
              118.62052413693007,
              4.112886916641821
            ],
            [
              118.62043644958855,
              4.112
            ],
            [
              118.62052413693007,
              4.1111130833581795
            ],
            [
              118.62078382917927,
              4.110260250425516
            ],
            [
              118.62120554650866,
              4.109474275093337
            ],
            [
              118.62177308255778,
              4.108785361952878
            ],
            [
              118.62246462723452,
              4.1082199855497805
            ],
            [
              118.62325360486477,
              4.107799872982148
            ],
            [
              118.6241096954807,
              4.107541168940354
            ],
            [
              118.625,
              4.1074538152756395
            ],
            [
              118.6258903045193,
              4.107541168940354
            ],
            [
              118.62674639513523,
              4.107799872982148
            ],
            [
              118.62753537276548,
              4.1082199855497805
            ],
            [
              118.62822691744222,
              4.108785361952878
            ],
            [
              118.62879445349134,
              4.109474275093337
            ],
            [
              118.62921617082073,
              4.110260250425516
            ],
            [
              118.62947586306993,
              4.1111130833581795
            ],
            [
              118.62956355041145,
              4.112
            ]
          ]
        ]
      },
      "properties": {
        "segment_id": "R04",
        "name": "Sipadan West Ridge",
        "group": "Sipadan",
        "area_km2": 0.795
      }
    },
    {
      "type": "Feature",
      "geometry": {
        "type": "Polygon",
        "coordinates": [
          [
            [
              118.64558918496176,
              4.15
            ],
            [
              118.64548179033994,
              4.151086246608422
            ],
            [
              118.64516373358958,
              4.1521307493688555
            ],
            [
              118.64464723745324,
              4.153093368625982
            ],
            [
              118.64395215058777,
              4.153937111461594
            ],
            [
              118.6431051847916,
              4.154629553311693
            ],
            [
              118.64213888848529,
              4.155144084024308
            ],
            [
              118.641090395894,
              4.155460930472705
            ],
            [
              118.64,
              4.15556791642556
            ],
            [
              118.638909604106,
              4.155460930472705
            ],
            [
              118.63786111151471,
              4.155144084024308
            ],
            [
              118.63689481520841,
              4.154629553311693
            ],
            [
              118.63604784941224,
              4.153937111461594
            ],
            [
              118.63535276254676,
              4.153093368625982
            ],
            [
              118.63483626641042,
              4.1521307493688555
            ],
            [
              118.63451820966006,
              4.151086246608422
            ],
            [
              118.63441081503824,
              4.15
            ],
            [
              118.63451820966006,
              4.148913753391579
            ],
            [
              118.63483626641042,
              4.147869250631145
            ],
            [
              118.63535276254676,
              4.146906631374018
            ],
            [
              118.63604784941224,
              4.146062888538407
            ],
            [
              118.63689481520841,
              4.1453704466883075
            ],
            [
              118.63786111151471,
              4.144855915975692
            ],
            [
              118.638909604106,
              4.144539069527296
            ],
            [
              118.64,
              4.144432083574441
            ],
            [
              118.641090395894,
              4.144539069527296
            ],
            [
              118.64213888848529,
              4.144855915975692
            ],
            [
              118.6431051847916,
              4.1453704466883075
            ],
            [
              118.64395215058777,
              4.146062888538407
            ],
            [
              118.64464723745324,
              4.146906631374018
            ],
            [
              118.64516373358958,
              4.147869250631145
            ],
            [
              118.64548179033994,
              4.148913753391579
            ],
            [
              118.64558918496176,
              4.15
            ]
          ]
        ]
      },
      "properties": {
        "segment_id": "R05",
        "name": "Mabul Coral Garden",
        "group": "Mabul",
        "area_km2": 1.192
      }
    },
    {
      "type": "Feature",
      "geometry": {
        "type": "Polygon",
        "coordinates": [
          [
            [
              118.63010220446938,
              4.145
            ],
            [
              118.63000416704116,
              4.145991602950742
            ],
            [
              118.62971382227994,
              4.146945099156186
            ],
            [
              118.62924232797204,
              4.147823846291881
            ],
            [
              118.6286078033793,
              4.14859407459821
            ],
            [
              118.62783463292597,
              4.149226184633311
            ],
            [
              118.62695252911897,
              4.149695884763025
            ],
            [
              118.62599539071292,
              4.149985124674779
            ],
            [
              118.625,
              4.150082789040971
            ],
            [
              118.62400460928708,
              4.149985124674779
            ],
            [
              118.62304747088103,
              4.149695884763025
            ],
            [
              118.62216536707403,
              4.149226184633311
            ],
            [
              118.6213921966207,
              4.14859407459821
            ],
            [
              118.62075767202796,
              4.147823846291881
            ],
            [
              118.62028617772006,
              4.146945099156186
            ],
            [
              118.61999583295884,
              4.145991602950742
            ],
            [
              118.61989779553062,
              4.145
            ],
            [
              118.61999583295884,
              4.144008397049257
            ],
            [
              118.62028617772006,
              4.143054900843813
            ],
            [
              118.62075767202796,
              4.142176153708118
            ],
            [
              118.6213921966207,
              4.141405925401789
            ],
            [
              118.62216536707403,
              4.140773815366688
            ],
            [
              118.62304747088103,
              4.140304115236974
            ],
            [
              118.62400460928708,
              4.14001487532522
            ],
            [
              118.625,
              4.1399172109590285
            ],
            [
              118.62599539071292,
              4.14001487532522
            ],
            [
              118.62695252911897,
              4.140304115236974
            ],
            [
              118.62783463292597,
              4.140773815366688
            ],
            [
              118.6286078033793,
              4.141405925401789
            ],
            [
              118.62924232797204,
              4.142176153708118
            ],
            [
              118.62971382227994,
              4.143054900843813
            ],
            [
              118.63000416704116,
              4.144008397049257
            ],
            [
              118.63010220446938,
              4.145
            ]
          ]
        ]
      },
      "properties": {
        "segment_id": "R06",
        "name": "Mabul Lobster Wall",
        "group": "Mabul",
        "area_km2": 0.994
      }
    },
    {
      "type": "Feature",
      "geometry": {
        "type": "Polygon",
        "coordinates": [
          [
            [
              118.63956355041145,
              4.152
            ],
            [
              118.63947586306993,
              4.152886916641821
            ],
            [
              118.63921617082073,
              4.153739749574484
            ],
            [
              118.63879445349134,
              4.154525724906663
            ],
            [
              118.63822691744222,
              4.155214638047123
            ],
            [
              118.63753537276548,
              4.15578001445022
            ],
            [
              118.63674639513523,
              4.156200127017852
            ],
            [
              118.63589030451931,
              4.156458831059647
            ],
            [
              118.635,
              4.156546184724361
            ],
            [
              118.6341096954807,
              4.156458831059647
            ],
            [
              118.63325360486478,
              4.156200127017852
            ],
            [
              118.63246462723453,
              4.15578001445022
            ],
            [
              118.63177308255779,
              4.155214638047123
            ],
            [
              118.63120554650867,
              4.154525724906663
            ],
            [
              118.63078382917928,
              4.153739749574484
            ],
            [
              118.63052413693008,
              4.152886916641821
            ],
            [
              118.63043644958856,
              4.152
            ],
            [
              118.63052413693008,
              4.1511130833581795
            ],
            [
              118.63078382917928,
              4.150260250425516
            ],
            [
              118.63120554650867,
              4.149474275093337
            ],
            [
              118.63177308255779,
              4.148785361952878
            ],
            [
              118.63246462723453,
              4.1482199855497806
            ],
            [
              118.63325360486478,
              4.147799872982148
            ],
            [
              118.6341096954807,
              4.147541168940354
            ],
            [
              118.635,
              4.1474538152756395
            ],
            [
              118.63589030451931,
              4.147541168940354
            ],
            [
              118.63674639513523,
              4.147799872982148
            ],
            [
              118.63753537276548,
              4.1482199855497806
            ],
            [
              118.63822691744222,
              4.148785361952878
            ],
            [
              118.63879445349134,
              4.149474275093337
            ],
            [
              118.63921617082073,
              4.150260250425516
            ],
            [
              118.63947586306993,
              4.1511130833581795
            ],
            [
              118.63956355041145,
              4.152
            ]
          ]
        ]
      },
      "properties": {
        "segment_id": "R07",
        "name": "Mabul Jetty Reef",
        "group": "Mabul",
        "area_km2": 0.795
      }
    },
    {
      "type": "Feature",
      "geometry": {
        "type": "Polygon",
        "coordinates": [
          [
            [
              118.62310220446938,
              4.133
            ],
            [
              118.62300416704116,
              4.133991602950743
            ],
            [
              118.62271382227993,
              4.1349450991561865
            ],
            [
              118.62224232797203,
              4.135823846291881
            ],
            [
              118.62160780337929,
              4.136594074598211
            ],
            [
              118.62083463292596,
              4.137226184633311
            ],
            [
              118.61995252911896,
              4.137695884763025
            ],
            [
              118.61899539071291,
              4.137985124674779
            ],
            [
              118.618,
              4.138082789040971
            ],
            [
              118.61700460928708,
              4.137985124674779
            ],
            [
              118.61604747088103,
              4.137695884763025
            ],
            [
              118.61516536707403,
              4.137226184633311
            ],
            [
              118.6143921966207,
              4.136594074598211
            ],
            [
              118.61375767202796,
              4.135823846291881
            ],
            [
              118.61328617772006,
              4.1349450991561865
            ],
            [
              118.61299583295883,
              4.133991602950743
            ],
            [
              118.61289779553061,
              4.133
            ],
            [
              118.61299583295883,
              4.132008397049257
            ],
            [
              118.61328617772006,
              4.1310549008438135
            ],
            [
              118.61375767202796,
              4.130176153708119
            ],
            [
              118.6143921966207,
              4.129405925401789
            ],
            [
              118.61516536707403,
              4.128773815366689
            ],
            [
              118.61604747088103,
              4.128304115236975
            ],
            [
              118.61700460928708,
              4.128014875325221
            ],
            [
              118.618,
              4.127917210959029
            ],
            [
              118.61899539071291,
              4.128014875325221
            ],
            [
              118.61995252911896,
              4.128304115236975
            ],
            [
              118.62083463292596,
              4.128773815366689
            ],
            [
              118.62160780337929,
              4.129405925401789
            ],
            [
              118.62224232797203,
              4.130176153708119
            ],
            [
              118.62271382227993,
              4.1310549008438135
            ],
            [
              118.62300416704116,
              4.132008397049257
            ],
            [
              118.62310220446938,
              4.133
            ]
          ]
        ]
      },
      "properties": {
        "segment_id": "R08",
        "name": "Kapalai House Reef",
        "group": "Kapalai",
        "area_km2": 0.994
      }
    },
    {
      "type": "Feature",
      "geometry": {
        "type": "Polygon",
        "coordinates": [
          [
            [
              118.62656355041145,
              4.13
            ],
            [
              118.62647586306993,
              4.1308869166418205
            ],
            [
              118.62621617082073,
              4.131739749574484
            ],
            [
              118.62579445349134,
              4.132525724906663
            ],
            [
              118.62522691744222,
              4.133214638047122
            ],
            [
              118.62453537276548,
              4.1337800144502195
            ],
            [
              118.62374639513523,
              4.134200127017852
            ],
            [
              118.6228903045193,
              4.134458831059646
            ],
            [
              118.622,
              4.1345461847243605
            ],
            [
              118.6211096954807,
              4.134458831059646
            ],
            [
              118.62025360486477,
              4.134200127017852
            ],
            [
              118.61946462723452,
              4.1337800144502195
            ],
            [
              118.61877308255778,
              4.133214638047122
            ],
            [
              118.61820554650866,
              4.132525724906663
            ],
            [
              118.61778382917927,
              4.131739749574484
            ],
            [
              118.61752413693007,
              4.1308869166418205
            ],
            [
              118.61743644958855,
              4.13
            ],
            [
              118.61752413693007,
              4.129113083358179
            ],
            [
              118.61778382917927,
              4.128260250425516
            ],
            [
              118.61820554650866,
              4.127474275093337
            ],
            [
              118.61877308255778,
              4.126785361952877
            ],
            [
              118.61946462723452,
              4.12621998554978
            ],
            [
              118.62025360486477,
              4.125799872982148
            ],
            [
              118.6211096954807,
              4.125541168940353
            ],
            [
              118.622,
              4.125453815275639
            ],
            [
              118.6228903045193,
              4.125541168940353
            ],
            [
              118.62374639513523,
              4.125799872982148
            ],
            [
              118.62453537276548,
              4.12621998554978
            ],
            [
              118.62522691744222,
              4.126785361952877
            ],
            [
              118.62579445349134,
              4.127474275093337
            ],
            [
              118.62621617082073,
              4.128260250425516
            ],
            [
              118.62647586306993,
              4.129113083358179
            ],
            [
              118.62656355041145,
              4.13
            ]
          ]
        ]
      },
      "properties": {
        "segment_id": "R09",
        "name": "Kapalai Reef Flat",
        "group": "Kapalai",
        "area_km2": 0.795
      }
    },
    {
      "type": "Feature",
      "geometry": {
        "type": "Polygon",
        "coordinates": [
          [
            [
              118.85624889875665,
              4.685
            ],
            [
              118.85612882791925,
              4.686214460628379
            ],
            [
              118.855773229662,
              4.687382250215887
            ],
            [
              118.85519576942652,
              4.68845849126358
            ],
            [
              118.85441863868577,
              4.689401824431558
            ],
            [
              118.85347170213835,
              4.690175997955202
            ],
            [
              118.85239135002469,
              4.690751260780161
            ],
            [
              118.85121909967067,
              4.691105505878683
            ],
            [
              118.85,
              4.691225119810294
            ],
            [
              118.84878090032932,
              4.691105505878683
            ],
            [
              118.8476086499753,
              4.690751260780161
            ],
            [
              118.84652829786164,
              4.690175997955202
            ],
            [
              118.84558136131422,
              4.689401824431558
            ],
            [
              118.84480423057347,
              4.68845849126358
            ],
            [
              118.84422677033798,
              4.687382250215887
            ],
            [
              118.84387117208074,
              4.686214460628379
            ],
            [
              118.84375110124334,
              4.685
            ],
            [
              118.84387117208074,
              4.683785539371621
            ],
            [
              118.84422677033798,
              4.682617749784113
            ],
            [
              118.84480423057347,
              4.681541508736419
            ],
            [
              118.84558136131422,
              4.680598175568441
            ],
            [
              118.84652829786164,
              4.679824002044797
            ],
            [
              118.8476086499753,
              4.6792487392198385
            ],
            [
              118.84878090032932,
              4.678894494121316
            ],
            [
              118.85,
              4.678774880189705
            ],
            [
              118.85121909967067,
              4.678894494121316
            ],
            [
              118.85239135002469,
              4.6792487392198385
            ],
            [
              118.85347170213835,
              4.679824002044797
            ],
            [
              118.85441863868577,
              4.680598175568441
            ],
            [
              118.85519576942652,
              4.681541508736419
            ],
            [
              118.855773229662,
              4.682617749784113
            ],
            [
              118.85612882791925,
              4.683785539371621
            ],
            [
              118.85624889875665,
              4.685
            ]
          ]
        ]
      },
      "properties": {
        "segment_id": "R10",
        "name": "Bodgaya Reef North",
        "group": "TunSakaran",
        "area_km2": 1.49
      }
    },
    {
      "type": "Feature",
      "geometry": {
        "type": "Polygon",
        "coordinates": [
          [
            [
              118.86058918496177,
              4.675
            ],
            [
              118.86048179033995,
              4.676086246608421
            ],
            [
              118.86016373358959,
              4.677130749368855
            ],
            [
              118.85964723745325,
              4.678093368625982
            ],
            [
              118.85895215058777,
              4.678937111461593
            ],
            [
              118.8581051847916,
              4.679629553311693
            ],
            [
              118.8571388884853,
              4.680144084024308
            ],
            [
              118.856090395894,
              4.680460930472704
            ],
            [
              118.855,
              4.680567916425559
            ],
            [
              118.85390960410601,
              4.680460930472704
            ],
            [
              118.85286111151471,
              4.680144084024308
            ],
            [
              118.85189481520841,
              4.679629553311693
            ],
            [
              118.85104784941224,
              4.678937111461593
            ],
            [
              118.85035276254676,
              4.678093368625982
            ],
            [
              118.84983626641042,
              4.677130749368855
            ],
            [
              118.84951820966006,
              4.676086246608421
            ],
            [
              118.84941081503824,
              4.675
            ],
            [
              118.84951820966006,
              4.673913753391578
            ],
            [
              118.84983626641042,
              4.672869250631145
            ],
            [
              118.85035276254676,
              4.671906631374018
            ],
            [
              118.85104784941224,
              4.6710628885384065
            ],
            [
              118.85189481520841,
              4.670370446688307
            ],
            [
              118.85286111151471,
              4.669855915975692
            ],
            [
              118.85390960410601,
              4.669539069527295
            ],
            [
              118.855,
              4.66943208357444
            ],
            [
              118.856090395894,
              4.669539069527295
            ],
            [
              118.8571388884853,
              4.669855915975692
            ],
            [
              118.8581051847916,
              4.670370446688307
            ],
            [
              118.85895215058777,
              4.6710628885384065
            ],
            [
              118.85964723745325,
              4.671906631374018
            ],
            [
              118.86016373358959,
              4.672869250631145
            ],
            [
              118.86048179033995,
              4.673913753391578
            ],
            [
              118.86058918496177,
              4.675
            ]
          ]
        ]
      },
      "properties": {
        "segment_id": "R11",
        "name": "Bodgaya Reef South",
        "group": "TunSakaran",
        "area_km2": 1.192
      }
    },
    {
      "type": "Feature",
      "geometry": {
        "type": "Polygon",
        "coordinates": [
          [
            [
              118.83924889875665,
              4.633
            ],
            [
              118.83912882791925,
              4.634214460628379
            ],
            [
              118.83877322966201,
              4.635382250215887
            ],
            [
              118.83819576942652,
              4.63645849126358
            ],
            [
              118.83741863868578,
              4.637401824431558
            ],
            [
              118.83647170213835,
              4.638175997955202
            ],
            [
              118.8353913500247,
              4.638751260780161
            ],
            [
              118.83421909967068,
              4.639105505878684
            ],
            [
              118.833,
              4.639225119810295
            ],
            [
              118.83178090032932,
              4.639105505878684
            ],
            [
              118.8306086499753,
              4.638751260780161
            ],
            [
              118.82952829786164,
              4.638175997955202
            ],
            [
              118.82858136131422,
              4.637401824431558
            ],
            [
              118.82780423057348,
              4.63645849126358
            ],
            [
              118.82722677033799,
              4.635382250215887
            ],
            [
              118.82687117208074,
              4.634214460628379
            ],
            [
              118.82675110124335,
              4.633
            ],
            [
              118.82687117208074,
              4.631785539371621
            ],
            [
              118.82722677033799,
              4.630617749784113
            ],
            [
              118.82780423057348,
              4.62954150873642
            ],
            [
              118.82858136131422,
              4.628598175568442
            ],
            [
              118.82952829786164,
              4.627824002044798
            ],
            [
              118.8306086499753,
              4.627248739219839
            ],
            [
              118.83178090032932,
              4.626894494121316
            ],
            [
              118.833,
              4.626774880189705
            ],
            [
              118.83421909967068,
              4.626894494121316
            ],
            [
              118.8353913500247,
              4.627248739219839
            ],
            [
              118.83647170213835,
              4.627824002044798
            ],
            [
              118.83741863868578,
              4.628598175568442
            ],
            [
              118.83819576942652,
              4.62954150873642
            ],
            [
              118.83877322966201,
              4.630617749784113
            ],
            [
              118.83912882791925,
              4.631785539371621
            ],
            [
              118.83924889875665,
              4.633
            ]
          ]
        ]
      },
      "properties": {
        "segment_id": "R12",
        "name": "Boheydulang Wall",
        "group": "TunSakaran",
        "area_km2": 1.49
      }
    },
    {
      "type": "Feature",
      "geometry": {
        "type": "Polygon",
        "coordinates": [
          [
            [
              118.84358918496176,
              4.628
            ],
            [
              118.84348179033994,
              4.629086246608422
            ],
            [
              118.84316373358958,
              4.630130749368855
            ],
            [
              118.84264723745324,
              4.631093368625982
            ],
            [
              118.84195215058776,
              4.6319371114615935
            ],
            [
              118.84110518479159,
              4.632629553311693
            ],
            [
              118.84013888848528,
              4.633144084024308
            ],
            [
              118.83909039589399,
              4.633460930472705
            ],
            [
              118.838,
              4.63356791642556
            ],
            [
              118.836909604106,
              4.633460930472705
            ],
            [
              118.8358611115147,
              4.633144084024308
            ],
            [
              118.8348948152084,
              4.632629553311693
            ],
            [
              118.83404784941223,
              4.6319371114615935
            ],
            [
              118.83335276254675,
              4.631093368625982
            ],
            [
              118.83283626641041,
              4.630130749368855
            ],
            [
              118.83251820966005,
              4.629086246608422
            ],
            [
              118.83241081503823,
              4.628
            ],
            [
              118.83251820966005,
              4.6269137533915785
            ],
            [
              118.83283626641041,
              4.625869250631145
            ],
            [
              118.83335276254675,
              4.624906631374018
            ],
            [
              118.83404784941223,
              4.624062888538407
            ],
            [
              118.8348948152084,
              4.623370446688307
            ],
            [
              118.8358611115147,
              4.622855915975692
            ],
            [
              118.836909604106,
              4.622539069527296
            ],
            [
              118.838,
              4.622432083574441
            ],
            [
              118.83909039589399,
              4.622539069527296
            ],
            [
              118.84013888848528,
              4.622855915975692
            ],
            [
              118.84110518479159,
              4.623370446688307
            ],
            [
              118.84195215058776,
              4.624062888538407
            ],
            [
              118.84264723745324,
              4.624906631374018
            ],
            [
              118.84316373358958,
              4.625869250631145
            ],
            [
              118.84348179033994,
              4.6269137533915785
            ],
            [
              118.84358918496176,
              4.628
            ]
          ]
        ]
      },
      "properties": {
        "segment_id": "R13",
        "name": "Boheydulang Lagoon",
        "group": "TunSakaran",
        "area_km2": 1.192
      }
    },
    {
      "type": "Feature",
      "geometry": {
        "type": "Polygon",
        "coordinates": [
          [
            [
              118.85510220446938,
              4.6
            ],
            [
              118.85500416704116,
              4.600991602950742
            ],
            [
              118.85471382227993,
              4.601945099156186
            ],
            [
              118.85424232797203,
              4.602823846291881
            ],
            [
              118.85360780337929,
              4.6035940745982105
            ],
            [
              118.85283463292596,
              4.604226184633311
            ],
            [
              118.85195252911896,
              4.604695884763025
            ],
            [
              118.85099539071291,
              4.604985124674779
            ],
            [
              118.85,
              4.605082789040971
            ],
            [
              118.84900460928708,
              4.604985124674779
            ],
            [
              118.84804747088103,
              4.604695884763025
            ],
            [
              118.84716536707403,
              4.604226184633311
            ],
            [
              118.8463921966207,
              4.6035940745982105
            ],
            [
              118.84575767202796,
              4.602823846291881
            ],
            [
              118.84528617772006,
              4.601945099156186
            ],
            [
              118.84499583295883,
              4.600991602950742
            ],
            [
              118.84489779553061,
              4.6
            ],
            [
              118.84499583295883,
              4.599008397049257
            ],
            [
              118.84528617772006,
              4.598054900843813
            ],
            [
              118.84575767202796,
              4.597176153708118
            ],
            [
              118.8463921966207,
              4.596405925401789
            ],
            [
              118.84716536707403,
              4.595773815366688
            ],
            [
              118.84804747088103,
              4.595304115236974
            ],
            [
              118.84900460928708,
              4.59501487532522
            ],
            [
              118.85,
              4.594917210959029
            ],
            [
              118.85099539071291,
              4.59501487532522
            ],
            [
              118.85195252911896,
              4.595304115236974
            ],
            [
              118.85283463292596,
              4.595773815366688
            ],
            [
              118.85360780337929,
              4.596405925401789
            ],
            [
              118.85424232797203,
              4.597176153708118
            ],
            [
              118.85471382227993,
              4.598054900843813
            ],
            [
              118.85500416704116,
              4.599008397049257
            ],
            [
              118.85510220446938,
              4.6
            ]
          ]
        ]
      },
      "properties": {
        "segment_id": "R14",
        "name": "Sibuan Reef",
        "group": "TunSakaran",
        "area_km2": 0.994
      }
    },
    {
      "type": "Feature",
      "geometry": {
        "type": "Polygon",
        "coordinates": [
          [
            [
              118.80510220446938,
              4.583
            ],
            [
              118.80500416704116,
              4.583991602950743
            ],
            [
              118.80471382227994,
              4.584945099156187
            ],
            [
              118.80424232797203,
              4.5858238462918814
            ],
            [
              118.8036078033793,
              4.586594074598211
            ],
            [
              118.80283463292596,
              4.5872261846333116
            ],
            [
              118.80195252911896,
              4.587695884763026
            ],
            [
              118.80099539071291,
              4.58798512467478
            ],
            [
              118.8,
              4.588082789040971
            ],
            [
              118.79900460928708,
              4.58798512467478
            ],
            [
              118.79804747088103,
              4.587695884763026
            ],
            [
              118.79716536707403,
              4.5872261846333116
            ],
            [
              118.7963921966207,
              4.586594074598211
            ],
            [
              118.79575767202796,
              4.5858238462918814
            ],
            [
              118.79528617772006,
              4.584945099156187
            ],
            [
              118.79499583295883,
              4.583991602950743
            ],
            [
              118.79489779553062,
              4.583
            ],
            [
              118.79499583295883,
              4.5820083970492576
            ],
            [
              118.79528617772006,
              4.581054900843814
            ],
            [
              118.79575767202796,
              4.580176153708119
            ],
            [
              118.7963921966207,
              4.579405925401789
            ],
            [
              118.79716536707403,
              4.578773815366689
            ],
            [
              118.79804747088103,
              4.578304115236975
            ],
            [
              118.79900460928708,
              4.578014875325221
            ],
            [
              118.8,
              4.577917210959029
            ],
            [
              118.80099539071291,
              4.578014875325221
            ],
            [
              118.80195252911896,
              4.578304115236975
            ],
            [
              118.80283463292596,
              4.578773815366689
            ],
            [
              118.8036078033793,
              4.579405925401789
            ],
            [
              118.80424232797203,
              4.580176153708119
            ],
            [
              118.80471382227994,
              4.581054900843814
            ],
            [
              118.80500416704116,
              4.5820083970492576
            ],
            [
              118.80510220446938,
              4.583
            ]
          ]
        ]
      },
      "properties": {
        "segment_id": "R15",
        "name": "Mantabuan Patch Reef",
        "group": "TunSakaran",
        "area_km2": 0.994
      }
    },
    {
      "type": "Feature",
      "geometry": {
        "type": "Polygon",
        "coordinates": [
          [
            [
              118.78756355041145,
              4.55
            ],
            [
              118.78747586306993,
              4.55088691664182
            ],
            [
              118.78721617082073,
              4.551739749574484
            ],
            [
              118.78679445349134,
              4.552525724906663
            ],
            [
              118.78622691744222,
              4.553214638047122
            ],
            [
              118.78553537276548,
              4.553780014450219
            ],
            [
              118.78474639513523,
              4.554200127017852
            ],
            [
              118.7838903045193,
              4.554458831059646
            ],
            [
              118.783,
              4.5545461847243605
            ],
            [
              118.7821096954807,
              4.554458831059646
            ],
            [
              118.78125360486477,
              4.554200127017852
            ],
            [
              118.78046462723452,
              4.553780014450219
            ],
            [
              118.77977308255778,
              4.553214638047122
            ],
            [
              118.77920554650866,
              4.552525724906663
            ],
            [
              118.77878382917928,
              4.551739749574484
            ],
            [
              118.77852413693007,
              4.55088691664182
            ],
            [
              118.77843644958855,
              4.55
            ],
            [
              118.77852413693007,
              4.549113083358179
            ],
            [
              118.77878382917928,
              4.548260250425516
            ],
            [
              118.77920554650866,
              4.547474275093337
            ],
            [
              118.77977308255778,
              4.546785361952877
            ],
            [
              118.78046462723452,
              4.54621998554978
            ],
            [
              118.78125360486477,
              4.545799872982148
            ],
            [
              118.7821096954807,
              4.545541168940353
            ],
            [
              118.783,
              4.545453815275639
            ],
            [
              118.7838903045193,
              4.545541168940353
            ],
            [
              118.78474639513523,
              4.545799872982148
            ],
            [
              118.78553537276548,
              4.54621998554978
            ],
            [
              118.78622691744222,
              4.546785361952877
            ],
            [
              118.78679445349134,
              4.547474275093337
            ],
            [
              118.78721617082073,
              4.548260250425516
            ],
            [
              118.78747586306993,
              4.549113083358179
            ],
            [
              118.78756355041145,
              4.55
            ]
          ]
        ]
      },
      "properties": {
        "segment_id": "R16",
        "name": "Tetagan Reef",
        "group": "TunSakaran",
        "area_km2": 0.795
      }
    },
    {
      "type": "Feature",
      "geometry": {
        "type": "Polygon",
        "coordinates": [
          [
            [
              118.87210220446939,
              4.617
            ],
            [
              118.87200416704117,
              4.617991602950743
            ],
            [
              118.87171382227994,
              4.6189450991561865
            ],
            [
              118.87124232797204,
              4.619823846291881
            ],
            [
              118.8706078033793,
              4.620594074598211
            ],
            [
              118.86983463292597,
              4.621226184633311
            ],
            [
              118.86895252911897,
              4.621695884763025
            ],
            [
              118.86799539071292,
              4.621985124674779
            ],
            [
              118.867,
              4.622082789040971
            ],
            [
              118.86600460928709,
              4.621985124674779
            ],
            [
              118.86504747088104,
              4.621695884763025
            ],
            [
              118.86416536707404,
              4.621226184633311
            ],
            [
              118.86339219662071,
              4.620594074598211
            ],
            [
              118.86275767202797,
              4.619823846291881
            ],
            [
              118.86228617772007,
              4.6189450991561865
            ],
            [
              118.86199583295884,
              4.617991602950743
            ],
            [
              118.86189779553062,
              4.617
            ],
            [
              118.86199583295884,
              4.616008397049257
            ],
            [
              118.86228617772007,
              4.6150549008438135
            ],
            [
              118.86275767202797,
              4.614176153708119
            ],
            [
              118.86339219662071,
              4.613405925401789
            ],
            [
              118.86416536707404,
              4.612773815366689
            ],
            [
              118.86504747088104,
              4.612304115236975
            ],
            [
              118.86600460928709,
              4.612014875325221
            ],
            [
              118.867,
              4.611917210959029
            ],
            [
              118.86799539071292,
              4.612014875325221
            ],
            [
              118.86895252911897,
              4.612304115236975
            ],
            [
              118.86983463292597,
              4.612773815366689
            ],
            [
              118.8706078033793,
              4.613405925401789
            ],
            [
              118.87124232797204,
              4.614176153708119
            ],
            [
              118.87171382227994,
              4.6150549008438135
            ],
            [
              118.87200416704117,
              4.616008397049257
            ],
            [
              118.87210220446939,
              4.617
            ]
          ]
        ]
      },
      "properties": {
        "segment_id": "R17",
        "name": "Maiga Reef",
        "group": "TunSakaran",
        "area_km2": 0.994
      }
    },
    {
      "type": "Feature",
      "geometry": {
        "type": "Polygon",
        "coordinates": [
          [
            [
              119.21624889875665,
              4.725
            ],
            [
              119.21612882791925,
              4.726214460628379
            ],
            [
              119.215773229662,
              4.727382250215887
            ],
            [
              119.21519576942651,
              4.72845849126358
            ],
            [
              119.21441863868577,
              4.729401824431558
            ],
            [
              119.21347170213835,
              4.730175997955202
            ],
            [
              119.21239135002469,
              4.730751260780161
            ],
            [
              119.21121909967067,
              4.731105505878683
            ],
            [
              119.21,
              4.731225119810294
            ],
            [
              119.20878090032932,
              4.731105505878683
            ],
            [
              119.2076086499753,
              4.730751260780161
            ],
            [
              119.20652829786164,
              4.730175997955202
            ],
            [
              119.20558136131422,
              4.729401824431558
            ],
            [
              119.20480423057347,
              4.72845849126358
            ],
            [
              119.20422677033798,
              4.727382250215887
            ],
            [
              119.20387117208074,
              4.726214460628379
            ],
            [
              119.20375110124334,
              4.725
            ],
            [
              119.20387117208074,
              4.723785539371621
            ],
            [
              119.20422677033798,
              4.722617749784113
            ],
            [
              119.20480423057347,
              4.721541508736419
            ],
            [
              119.20558136131422,
              4.720598175568441
            ],
            [
              119.20652829786164,
              4.719824002044797
            ],
            [
              119.2076086499753,
              4.719248739219839
            ],
            [
              119.20878090032932,
              4.718894494121316
            ],
            [
              119.21,
              4.718774880189705
            ],
            [
              119.21121909967067,
              4.718894494121316
            ],
            [
              119.21239135002469,
              4.719248739219839
            ],
            [
              119.21347170213835,
              4.719824002044797
            ],
            [
              119.21441863868577,
              4.720598175568441
            ],
            [
              119.21519576942651,
              4.721541508736419
            ],
            [
              119.215773229662,
              4.722617749784113
            ],
            [
              119.21612882791925,
              4.723785539371621
            ],
            [
              119.21624889875665,
              4.725
            ]
          ]
        ]
      },
      "properties": {
        "segment_id": "R18",
        "name": "Tagbalatang Reef",
        "group": "Eastern",
        "area_km2": 1.49
      }
    },
    {
      "type": "Feature",
      "geometry": {
        "type": "Polygon",
        "coordinates": [
          [
            [
              119.20558918496177,
              4.74
            ],
            [
              119.20548179033995,
              4.741086246608422
            ],
            [
              119.20516373358959,
              4.742130749368855
            ],
            [
              119.20464723745324,
              4.743093368625982
            ],
            [
              119.20395215058777,
              4.743937111461594
            ],
            [
              119.2031051847916,
              4.744629553311693
            ],
            [
              119.2021388884853,
              4.745144084024308
            ],
            [
              119.201090395894,
              4.745460930472705
            ],
            [
              119.2,
              4.74556791642556
            ],
            [
              119.198909604106,
              4.745460930472705
            ],
            [
              119.19786111151471,
              4.745144084024308
            ],
            [
              119.19689481520841,
              4.744629553311693
            ],
            [
              119.19604784941224,
              4.743937111461594
            ],
            [
              119.19535276254676,
              4.743093368625982
            ],
            [
              119.19483626641042,
              4.742130749368855
            ],
            [
              119.19451820966006,
              4.741086246608422
            ],
            [
              119.19441081503824,
              4.74
            ],
            [
              119.19451820966006,
              4.738913753391579
            ],
            [
              119.19483626641042,
              4.737869250631145
            ],
            [
              119.19535276254676,
              4.736906631374018
            ],
            [
              119.19604784941224,
              4.736062888538407
            ],
            [
              119.19689481520841,
              4.735370446688307
            ],
            [
              119.19786111151471,
              4.734855915975692
            ],
            [
              119.198909604106,
              4.734539069527296
            ],
            [
              119.2,
              4.734432083574441
            ],
            [
              119.201090395894,
              4.734539069527296
            ],
            [
              119.2021388884853,
              4.734855915975692
            ],
            [
              119.2031051847916,
              4.735370446688307
            ],
            [
              119.20395215058777,
              4.736062888538407
            ],
            [
              119.20464723745324,
              4.736906631374018
            ],
            [
              119.20516373358959,
              4.737869250631145
            ],
            [
              119.20548179033995,
              4.738913753391579
            ],
            [
              119.20558918496177,
              4.74
            ]
          ]
        ]
      },
      "properties": {
        "segment_id": "R19",
        "name": "Tagbalatang North",
        "group": "Eastern",
        "area_km2": 1.192
      }
    },
    {
      "type": "Feature",
      "geometry": {
        "type": "Polygon",
        "coordinates": [
          [
            [
              119.28310220446939,
              4.622
            ],
            [
              119.28300416704117,
              4.6229916029507425
            ],
            [
              119.28271382227994,
              4.623945099156186
            ],
            [
              119.28224232797204,
              4.624823846291881
            ],
            [
              119.2816078033793,
              4.625594074598211
            ],
            [
              119.28083463292597,
              4.626226184633311
            ],
            [
              119.27995252911897,
              4.626695884763025
            ],
            [
              119.27899539071292,
              4.626985124674779
            ],
            [
              119.278,
              4.627082789040971
            ],
            [
              119.27700460928709,
              4.626985124674779
            ],
            [
              119.27604747088104,
              4.626695884763025
            ],
            [
              119.27516536707404,
              4.626226184633311
            ],
            [
              119.27439219662071,
              4.625594074598211
            ],
            [
              119.27375767202797,
              4.624823846291881
            ],
            [
              119.27328617772007,
              4.623945099156186
            ],
            [
              119.27299583295884,
              4.6229916029507425
            ],
            [
              119.27289779553062,
              4.622
            ],
            [
              119.27299583295884,
              4.621008397049257
            ],
            [
              119.27328617772007,
              4.620054900843813
            ],
            [
              119.27375767202797,
              4.619176153708119
            ],
            [
              119.27439219662071,
              4.618405925401789
            ],
            [
              119.27516536707404,
              4.6177738153666885
            ],
            [
              119.27604747088104,
              4.6173041152369745
            ],
            [
              119.27700460928709,
              4.6170148753252205
            ],
            [
              119.278,
              4.616917210959029
            ],
            [
              119.27899539071292,
              4.6170148753252205
            ],
            [
              119.27995252911897,
              4.6173041152369745
            ],
            [
              119.28083463292597,
              4.6177738153666885
            ],
            [
              119.2816078033793,
              4.618405925401789
            ],
            [
              119.28224232797204,
              4.619176153708119
            ],
            [
              119.28271382227994,
              4.620054900843813
            ],
            [
              119.28300416704117,
              4.621008397049257
            ],
            [
              119.28310220446939,
              4.622
            ]
          ]
        ]
      },
      "properties": {
        "segment_id": "R20",
        "name": "Eastern Patch Reef 1",
        "group": "Eastern",
        "area_km2": 0.994
      }
    },
    {
      "type": "Feature",
      "geometry": {
        "type": "Polygon",
        "coordinates": [
          [
            [
              119.15058918496176,
              4.621
            ],
            [
              119.15048179033994,
              4.622086246608422
            ],
            [
              119.15016373358958,
              4.623130749368856
            ],
            [
              119.14964723745324,
              4.624093368625982
            ],
            [
              119.14895215058776,
              4.624937111461594
            ],
            [
              119.14810518479159,
              4.625629553311693
            ],
            [
              119.14713888848529,
              4.626144084024308
            ],
            [
              119.14609039589399,
              4.626460930472705
            ],
            [
              119.145,
              4.62656791642556
            ],
            [
              119.143909604106,
              4.626460930472705
            ],
            [
              119.1428611115147,
              4.626144084024308
            ],
            [
              119.1418948152084,
              4.625629553311693
            ],
            [
              119.14104784941223,
              4.624937111461594
            ],
            [
              119.14035276254675,
              4.624093368625982
            ],
            [
              119.13983626641041,
              4.623130749368856
            ],
            [
              119.13951820966005,
              4.622086246608422
            ],
            [
              119.13941081503823,
              4.621
            ],
            [
              119.13951820966005,
              4.619913753391579
            ],
            [
              119.13983626641041,
              4.618869250631145
            ],
            [
              119.14035276254675,
              4.6179066313740185
            ],
            [
              119.14104784941223,
              4.617062888538407
            ],
            [
              119.1418948152084,
              4.6163704466883075
            ],
            [
              119.1428611115147,
              4.6158559159756924
            ],
            [
              119.143909604106,
              4.615539069527296
            ],
            [
              119.145,
              4.615432083574441
            ],
            [
              119.14609039589399,
              4.615539069527296
            ],
            [
              119.14713888848529,
              4.6158559159756924
            ],
            [
              119.14810518479159,
              4.6163704466883075
            ],
            [
              119.14895215058776,
              4.617062888538407
            ],
            [
              119.14964723745324,
              4.6179066313740185
            ],
            [
              119.15016373358958,
              4.618869250631145
            ],
            [
              119.15048179033994,
              4.619913753391579
            ],
            [
              119.15058918496176,
              4.621
            ]
          ]
        ]
      },
      "properties": {
        "segment_id": "R21",
        "name": "Eastern Patch Reef 2",
        "group": "Eastern",
        "area_km2": 1.192
      }
    },
    {
      "type": "Feature",
      "geometry": {
        "type": "Polygon",
        "coordinates": [
          [
            [
              118.65458918496176,
              4.675
            ],
            [
              118.65448179033994,
              4.676086246608421
            ],
            [
              118.65416373358958,
              4.677130749368855
            ],
            [
              118.65364723745324,
              4.678093368625982
            ],
            [
              118.65295215058777,
              4.678937111461593
            ],
            [
              118.6521051847916,
              4.679629553311693
            ],
            [
              118.65113888848529,
              4.680144084024308
            ],
            [
              118.650090395894,
              4.680460930472704
            ],
            [
              118.649,
              4.680567916425559
            ],
            [
              118.647909604106,
              4.680460930472704
            ],
            [
              118.64686111151471,
              4.680144084024308
            ],
            [
              118.64589481520841,
              4.679629553311693
            ],
            [
              118.64504784941224,
              4.678937111461593
            ],
            [
              118.64435276254676,
              4.678093368625982
            ],
            [
              118.64383626641042,
              4.677130749368855
            ],
            [
              118.64351820966006,
              4.676086246608421
            ],
            [
              118.64341081503824,
              4.675
            ],
            [
              118.64351820966006,
              4.673913753391578
            ],
            [
              118.64383626641042,
              4.672869250631145
            ],
            [
              118.64435276254676,
              4.671906631374018
            ],
            [
              118.64504784941224,
              4.6710628885384065
            ],
            [
              118.64589481520841,
              4.670370446688307
            ],
            [
              118.64686111151471,
              4.669855915975692
            ],
            [
              118.647909604106,
              4.669539069527295
            ],
            [
              118.649,
              4.66943208357444
            ],
            [
              118.650090395894,
              4.669539069527295
            ],
            [
              118.65113888848529,
              4.669855915975692
            ],
            [
              118.6521051847916,
              4.670370446688307
            ],
            [
              118.65295215058777,
              4.6710628885384065
            ],
            [
              118.65364723745324,
              4.671906631374018
            ],
            [
              118.65416373358958,
              4.672869250631145
            ],
            [
              118.65448179033994,
              4.673913753391578
            ],
            [
              118.65458918496176,
              4.675
            ]
          ]
        ]
      },
      "properties": {
        "segment_id": "R22",
        "name": "Church Reef",
        "group": "Western",
        "area_km2": 1.192
      }
    },
    {
      "type": "Feature",
      "geometry": {
        "type": "Polygon",
        "coordinates": [
          [
            [
              118.29124889875665,
              4.735
            ],
            [
              118.29112882791925,
              4.736214460628379
            ],
            [
              118.29077322966201,
              4.737382250215887
            ],
            [
              118.29019576942652,
              4.7384584912635805
            ],
            [
              118.28941863868577,
              4.7394018244315586
            ],
            [
              118.28847170213835,
              4.740175997955203
            ],
            [
              118.28739135002469,
              4.740751260780161
            ],
            [
              118.28621909967067,
              4.741105505878684
            ],
            [
              118.285,
              4.741225119810295
            ],
            [
              118.28378090032932,
              4.741105505878684
            ],
            [
              118.2826086499753,
              4.740751260780161
            ],
            [
              118.28152829786164,
              4.740175997955203
            ],
            [
              118.28058136131422,
              4.7394018244315586
            ],
            [
              118.27980423057348,
              4.7384584912635805
            ],
            [
              118.27922677033798,
              4.737382250215887
            ],
            [
              118.27887117208074,
              4.736214460628379
            ],
            [
              118.27875110124334,
              4.735
            ],
            [
              118.27887117208074,
              4.733785539371621
            ],
            [
              118.27922677033798,
              4.732617749784113
            ],
            [
              118.27980423057348,
              4.73154150873642
            ],
            [
              118.28058136131422,
              4.730598175568442
            ],
            [
              118.28152829786164,
              4.729824002044798
            ],
            [
              118.2826086499753,
              4.729248739219839
            ],
            [
              118.28378090032932,
              4.728894494121317
            ],
            [
              118.285,
              4.728774880189706
            ],
            [
              118.28621909967067,
              4.728894494121317
            ],
            [
              118.28739135002469,
              4.729248739219839
            ],
            [
              118.28847170213835,
              4.729824002044798
            ],
            [
              118.28941863868577,
              4.730598175568442
            ],
            [
              118.29019576942652,
              4.73154150873642
            ],
            [
              118.29077322966201,
              4.732617749784113
            ],
            [
              118.29112882791925,
              4.733785539371621
            ],
            [
              118.29124889875665,
              4.735
            ]
          ]
        ]
      },
      "properties": {
        "segment_id": "R23",
        "name": "Western Patch Reef",
        "group": "Western",
        "area_km2": 1.49
      }
    },
    {
      "type": "Feature",
      "geometry": {
        "type": "Polygon",
        "coordinates": [
          [
            [
              118.30510220446938,
              4.795
            ],
            [
              118.30500416704116,
              4.795991602950743
            ],
            [
              118.30471382227994,
              4.796945099156186
            ],
            [
              118.30424232797203,
              4.797823846291881
            ],
            [
              118.3036078033793,
              4.798594074598211
            ],
            [
              118.30283463292596,
              4.799226184633311
            ],
            [
              118.30195252911896,
              4.799695884763025
            ],
            [
              118.30099539071291,
              4.799985124674779
            ],
            [
              118.3,
              4.800082789040971
            ],
            [
              118.29900460928708,
              4.799985124674779
            ],
            [
              118.29804747088103,
              4.799695884763025
            ],
            [
              118.29716536707403,
              4.799226184633311
            ],
            [
              118.2963921966207,
              4.798594074598211
            ],
            [
              118.29575767202796,
              4.797823846291881
            ],
            [
              118.29528617772006,
              4.796945099156186
            ],
            [
              118.29499583295883,
              4.795991602950743
            ],
            [
              118.29489779553062,
              4.795
            ],
            [
              118.29499583295883,
              4.794008397049257
            ],
            [
              118.29528617772006,
              4.7930549008438135
            ],
            [
              118.29575767202796,
              4.792176153708119
            ],
            [
              118.2963921966207,
              4.791405925401789
            ],
            [
              118.29716536707403,
              4.790773815366689
            ],
            [
              118.29804747088103,
              4.7903041152369745
            ],
            [
              118.29900460928708,
              4.7900148753252205
            ],
            [
              118.3,
              4.789917210959029
            ],
            [
              118.30099539071291,
              4.7900148753252205
            ],
            [
              118.30195252911896,
              4.7903041152369745
            ],
            [
              118.30283463292596,
              4.790773815366689
            ],
            [
              118.3036078033793,
              4.791405925401789
            ],
            [
              118.30424232797203,
              4.792176153708119
            ],
            [
              118.30471382227994,
              4.7930549008438135
            ],
            [
              118.30500416704116,
              4.794008397049257
            ],
            [
              118.30510220446938,
              4.795
            ]
          ]
        ]
      },
      "properties": {
        "segment_id": "R24",
        "name": "Western North Reef",
        "group": "Western",
        "area_km2": 0.994
      }
    },
    {
      "type": "Feature",
      "geometry": {
        "type": "Polygon",
        "coordinates": [
          [
            [
              118.65624889875666,
              4.45
            ],
            [
              118.65612882791926,
              4.451214460628379
            ],
            [
              118.65577322966202,
              4.452382250215887
            ],
            [
              118.65519576942653,
              4.45345849126358
            ],
            [
              118.65441863868578,
              4.454401824431558
            ],
            [
              118.65347170213836,
              4.455175997955203
            ],
            [
              118.6523913500247,
              4.455751260780161
            ],
            [
              118.65121909967068,
              4.456105505878684
            ],
            [
              118.65,
              4.456225119810295
            ],
            [
              118.64878090032933,
              4.456105505878684
            ],
            [
              118.64760864997531,
              4.455751260780161
            ],
            [
              118.64652829786165,
              4.455175997955203
            ],
            [
              118.64558136131423,
              4.454401824431558
            ],
            [
              118.64480423057348,
              4.45345849126358
            ],
            [
              118.644226770338,
              4.452382250215887
            ],
            [
              118.64387117208075,
              4.451214460628379
            ],
            [
              118.64375110124335,
              4.45
            ],
            [
              118.64387117208075,
              4.448785539371621
            ],
            [
              118.644226770338,
              4.447617749784113
            ],
            [
              118.64480423057348,
              4.44654150873642
            ],
            [
              118.64558136131423,
              4.445598175568442
            ],
            [
              118.64652829786165,
              4.444824002044798
            ],
            [
              118.64760864997531,
              4.444248739219839
            ],
            [
              118.64878090032933,
              4.4438944941213165
            ],
            [
              118.65,
              4.4437748801897055
            ],
            [
              118.65121909967068,
              4.4438944941213165
            ],
            [
              118.6523913500247,
              4.444248739219839
            ],
            [
              118.65347170213836,
              4.444824002044798
            ],
            [
              118.65441863868578,
              4.445598175568442
            ],
            [
              118.65519576942653,
              4.44654150873642
            ],
            [
              118.65577322966202,
              4.447617749784113
            ],
            [
              118.65612882791926,
              4.448785539371621
            ],
            [
              118.65624889875666,
              4.45
            ]
          ]
        ]
      },
      "properties": {
        "segment_id": "R25",
        "name": "Bum Bum Reef",
        "group": "BumBum",
        "area_km2": 1.49
      }
    },
    {
      "type": "Feature",
      "geometry": {
        "type": "Polygon",
        "coordinates": [
          [
            [
              118.75624889875665,
              4.333
            ],
            [
              118.75612882791926,
              4.334214460628379
            ],
            [
              118.75577322966201,
              4.335382250215887
            ],
            [
              118.75519576942652,
              4.33645849126358
            ],
            [
              118.75441863868578,
              4.337401824431558
            ],
            [
              118.75347170213836,
              4.338175997955203
            ],
            [
              118.7523913500247,
              4.338751260780161
            ],
            [
              118.75121909967068,
              4.339105505878684
            ],
            [
              118.75,
              4.339225119810295
            ],
            [
              118.74878090032932,
              4.339105505878684
            ],
            [
              118.7476086499753,
              4.338751260780161
            ],
            [
              118.74652829786164,
              4.338175997955203
            ],
            [
              118.74558136131422,
              4.337401824431558
            ],
            [
              118.74480423057348,
              4.33645849126358
            ],
            [
              118.74422677033799,
              4.335382250215887
            ],
            [
              118.74387117208074,
              4.334214460628379
            ],
            [
              118.74375110124335,
              4.333
            ],
            [
              118.74387117208074,
              4.331785539371621
            ],
            [
              118.74422677033799,
              4.330617749784113
            ],
            [
              118.74480423057348,
              4.32954150873642
            ],
            [
              118.74558136131422,
              4.328598175568442
            ],
            [
              118.74652829786164,
              4.327824002044798
            ],
            [
              118.7476086499753,
              4.327248739219839
            ],
            [
              118.74878090032932,
              4.3268944941213165
            ],
            [
              118.75,
              4.3267748801897055
            ],
            [
              118.75121909967068,
              4.3268944941213165
            ],
            [
              118.7523913500247,
              4.327248739219839
            ],
            [
              118.75347170213836,
              4.327824002044798
            ],
            [
              118.75441863868578,
              4.328598175568442
            ],
            [
              118.75519576942652,
              4.32954150873642
            ],
            [
              118.75577322966201,
              4.330617749784113
            ],
            [
              118.75612882791926,
              4.331785539371621
            ],
            [
              118.75624889875665,
              4.333
            ]
          ]
        ]
      },
      "properties": {
        "segment_id": "R26",
        "name": "Timbalan Reef",
        "group": "BumBum",
        "area_km2": 1.49
      }
    },
    {
      "type": "Feature",
      "geometry": {
        "type": "Polygon",
        "coordinates": [
          [
            [
              118.50510220446938,
              4.2
            ],
            [
              118.50500416704116,
              4.200991602950743
            ],
            [
              118.50471382227994,
              4.201945099156187
            ],
            [
              118.50424232797204,
              4.202823846291881
            ],
            [
              118.5036078033793,
              4.203594074598211
            ],
            [
              118.50283463292597,
              4.2042261846333115
            ],
            [
              118.50195252911897,
              4.204695884763026
            ],
            [
              118.50099539071292,
              4.20498512467478
            ],
            [
              118.5,
              4.205082789040971
            ],
            [
              118.49900460928708,
              4.20498512467478
            ],
            [
              118.49804747088103,
              4.204695884763026
            ],
            [
              118.49716536707403,
              4.2042261846333115
            ],
            [
              118.4963921966207,
              4.203594074598211
            ],
            [
              118.49575767202796,
              4.202823846291881
            ],
            [
              118.49528617772006,
              4.201945099156187
            ],
            [
              118.49499583295884,
              4.200991602950743
            ],
            [
              118.49489779553062,
              4.2
            ],
            [
              118.49499583295884,
              4.1990083970492575
            ],
            [
              118.49528617772006,
              4.198054900843814
            ],
            [
              118.49575767202796,
              4.197176153708119
            ],
            [
              118.4963921966207,
              4.196405925401789
            ],
            [
              118.49716536707403,
              4.195773815366689
            ],
            [
              118.49804747088103,
              4.195304115236975
            ],
            [
              118.49900460928708,
              4.195014875325221
            ],
            [
              118.5,
              4.194917210959029
            ],
            [
              118.50099539071292,
              4.195014875325221
            ],
            [
              118.50195252911897,
              4.195304115236975
            ],
            [
              118.50283463292597,
              4.195773815366689
            ],
            [
              118.5036078033793,
              4.196405925401789
            ],
            [
              118.50424232797204,
              4.197176153708119
            ],
            [
              118.50471382227994,
              4.198054900843814
            ],
            [
              118.50500416704116,
              4.1990083970492575
            ],
            [
              118.50510220446938,
              4.2
            ]
          ]
        ]
      },
      "properties": {
        "segment_id": "R27",
        "name": "Kalampunian Reef",
        "group": "Kalampunian",
        "area_km2": 0.994
      }
    },
    {
      "type": "Feature",
      "geometry": {
        "type": "Polygon",
        "coordinates": [
          [
            [
              118.61456355041145,
              4.48
            ],
            [
              118.61447586306993,
              4.480886916641821
            ],
            [
              118.61421617082073,
              4.481739749574484
            ],
            [
              118.61379445349134,
              4.4825257249066635
            ],
            [
              118.61322691744222,
              4.483214638047123
            ],
            [
              118.61253537276548,
              4.48378001445022
            ],
            [
              118.61174639513523,
              4.484200127017853
            ],
            [
              118.6108903045193,
              4.484458831059647
            ],
            [
              118.61,
              4.484546184724361
            ],
            [
              118.6091096954807,
              4.484458831059647
            ],
            [
              118.60825360486477,
              4.484200127017853
            ],
            [
              118.60746462723452,
              4.48378001445022
            ],
            [
              118.60677308255778,
              4.483214638047123
            ],
            [
              118.60620554650866,
              4.4825257249066635
            ],
            [
              118.60578382917927,
              4.481739749574484
            ],
            [
              118.60552413693007,
              4.480886916641821
            ],
            [
              118.60543644958855,
              4.48
            ],
            [
              118.60552413693007,
              4.47911308335818
            ],
            [
              118.60578382917927,
              4.4782602504255165
            ],
            [
              118.60620554650866,
              4.477474275093337
            ],
            [
              118.60677308255778,
              4.476785361952878
            ],
            [
              118.60746462723452,
              4.476219985549781
            ],
            [
              118.60825360486477,
              4.475799872982148
            ],
            [
              118.6091096954807,
              4.475541168940354
            ],
            [
              118.61,
              4.47545381527564
            ],
            [
              118.6108903045193,
              4.475541168940354
            ],
            [
              118.61174639513523,
              4.475799872982148
            ],
            [
              118.61253537276548,
              4.476219985549781
            ],
            [
              118.61322691744222,
              4.476785361952878
            ],
            [
              118.61379445349134,
              4.477474275093337
            ],
            [
              118.61421617082073,
              4.4782602504255165
            ],
            [
              118.61447586306993,
              4.47911308335818
            ],
            [
              118.61456355041145,
              4.48
            ]
          ]
        ]
      },
      "properties": {
        "segment_id": "R28",
        "name": "Semporna Port Reef",
        "group": "BumBum",
        "area_km2": 0.795
      }
    }
  ]
}